{
  "type": "FeatureCollection",
  "features": [
    {
      "type": "Feature",
      "properties": {
        "norad_id": 31384,
        "name": "FENGYUN 1C DEB",
        "group": "fengyun-1c-debris",
        "lat": 33.762694719356084,
        "lon": 130.73350801203583,
        "alt_km": 873.7127342381782,
        "timestamp": "2025-12-04T03:47:54.825252+00:00",
        "meta_object_name": "FENGYUN 1C DEB",
        "meta_object_id": "1999-025BSQ",
        "meta_epoch": "2025-11-30T21:25:39.153792",
        "meta_mean_motion": 13.85935935,
        "meta_eccentricity": 0.04406256,
        "meta_inclination": 98.4563,
        "meta_ra_of_asc_node": 302.0658,
        "meta_arg_of_pericenter": 74.1899,
        "meta_mean_anomaly": 342.7882,
        "meta_ephemeris_type": 0,
        "meta_classification_type": "U",
        "meta_norad_cat_id": 31384,
        "meta_element_set_no": 999,
        "meta_rev_at_epoch": 92860,
        "meta_bstar": 0.0021210825,
        "meta_mean_motion_dot": 5.211e-05,
        "meta_mean_motion_ddot": 0,
        "tle_line1": "1 31384U 99025BSQ 25334.89281428  .00005211  00000+0  21211-2 0  9990",
        "tle_line2": "2 31384  98.4563 302.0658 0440625  74.1899 342.7882 13.85935935928609"
      },
      "geometry": {
        "type": "Point",
        "coordinates": [
          130.73350801203583,
          33.762694719356084
        ]
      }
    },
    {
      "type": "Feature",
      "properties": {
        "norad_id": 31385,
        "name": "FENGYUN 1C DEB",
        "group": "fengyun-1c-debris",
        "lat": -54.379875946936934,
        "lon": 80.57441763906681,
        "alt_km": 821.1254788295055,
        "timestamp": "2025-12-04T03:47:54.825262+00:00",
        "meta_object_name": "FENGYUN 1C DEB",
        "meta_object_id": "1999-025BSR",
        "meta_epoch": "2025-12-01T00:22:37.155648",
        "meta_mean_motion": 14.43974622,
        "meta_eccentricity": 0.01349077,
        "meta_inclination": 98.9546,
        "meta_ra_of_asc_node": 64.5546,
        "meta_arg_of_pericenter": 90.2451,
        "meta_mean_anomaly": 88.8217,
        "meta_ephemeris_type": 0,
        "meta_classification_type": "U",
        "meta_norad_cat_id": 31385,
        "meta_element_set_no": 999,
        "meta_rev_at_epoch": 98445,
        "meta_bstar": 0.00018371815,
        "meta_mean_motion_dot": 6.48e-06,
        "meta_mean_motion_ddot": 0,
        "tle_line1": "1 31385U 99025BSR 25335.01570782  .00000648  00000+0  18372-3 0  9994",
        "tle_line2": "2 31385  98.9546  64.5546 0134907  90.2451  88.8217 14.43974622984454"
      },
      "geometry": {
        "type": "Point",
        "coordinates": [
          80.57441763906681,
          -54.379875946936934
        ]
      }
    },
    {
      "type": "Feature",
      "properties": {
        "norad_id": 31386,
        "name": "FENGYUN 1C DEB",
        "group": "fengyun-1c-debris",
        "lat": -9.208507623033805,
        "lon": -4.724452075479318,
        "alt_km": 839.3330671317835,
        "timestamp": "2025-12-04T03:47:54.825271+00:00",
        "meta_object_name": "FENGYUN 1C DEB",
        "meta_object_id": "1999-025BSS",
        "meta_epoch": "2025-11-30T23:36:27.682272",
        "meta_mean_motion": 13.85933209,
        "meta_eccentricity": 0.01976819,
        "meta_inclination": 98.4408,
        "meta_ra_of_asc_node": 351.0324,
        "meta_arg_of_pericenter": 316.7324,
        "meta_mean_anomaly": 41.8452,
        "meta_ephemeris_type": 0,
        "meta_classification_type": "U",
        "meta_norad_cat_id": 31386,
        "meta_element_set_no": 999,
        "meta_rev_at_epoch": 93699,
        "meta_bstar": 0.0021212341,
        "meta_mean_motion_dot": 2.802e-05,
        "meta_mean_motion_ddot": 0,
        "tle_line1": "1 31386U 99025BSS 25334.98365373  .00002802  00000+0  21212-2 0  9998",
        "tle_line2": "2 31386  98.4408 351.0324 0197681 316.7324  41.8452 13.85933209936995"
      },
      "geometry": {
        "type": "Point",
        "coordinates": [
          -4.724452075479318,
          -9.208507623033805
        ]
      }
    },
    {
      "type": "Feature",
      "properties": {
        "norad_id": 31387,
        "name": "FENGYUN 1C DEB",
        "group": "fengyun-1c-debris",
        "lat": -37.65249629385619,
        "lon": 29.2367343234182,
        "alt_km": 692.0486966405051,
        "timestamp": "2025-12-04T03:47:54.825282+00:00",
        "meta_object_name": "FENGYUN 1C DEB",
        "meta_object_id": "1999-025BST",
        "meta_epoch": "2025-12-03T09:46:58.418976",
        "meta_mean_motion": 14.13553434,
        "meta_eccentricity": 0.0241338,
        "meta_inclination": 99.1685,
        "meta_ra_of_asc_node": 215.625,
        "meta_arg_of_pericenter": 197.5416,
        "meta_mean_anomaly": 161.7313,
        "meta_ephemeris_type": 0,
        "meta_classification_type": "U",
        "meta_norad_cat_id": 31387,
        "meta_element_set_no": 999,
        "meta_rev_at_epoch": 96165,
        "meta_bstar": 0.00033503,
        "meta_mean_motion_dot": 7.83e-06,
        "meta_mean_motion_ddot": 0,
        "tle_line1": "1 31387U 99025BST 25337.40762059  .00000783  00000+0  33503-3 0  9994",
        "tle_line2": "2 31387  99.1685 215.6250 0241338 197.5416 161.7313 14.13553434961659"
      },
      "geometry": {
        "type": "Point",
        "coordinates": [
          29.2367343234182,
          -37.65249629385619
        ]
      }
    },
    {
      "type": "Feature",
      "properties": {
        "norad_id": 31388,
        "name": "FENGYUN 1C DEB",
        "group": "fengyun-1c-debris",
        "lat": -80.86631444277747,
        "lon": 71.77325569051155,
        "alt_km": 850.6445346629298,
        "timestamp": "2025-12-04T03:47:54.825291+00:00",
        "meta_object_name": "FENGYUN 1C DEB",
        "meta_object_id": "1999-025BSU",
        "meta_epoch": "2025-12-03T06:07:53.129856",
        "meta_mean_motion": 14.07419415,
        "meta_eccentricity": 0.0046166,
        "meta_inclination": 98.8042,
        "meta_ra_of_asc_node": 325.4619,
        "meta_arg_of_pericenter": 228.0098,
        "meta_mean_anomaly": 147.5361,
        "meta_ephemeris_type": 0,
        "meta_classification_type": "U",
        "meta_norad_cat_id": 31388,
        "meta_element_set_no": 999,
        "meta_rev_at_epoch": 96308,
        "meta_bstar": 0.00030121,
        "meta_mean_motion_dot": 4.68e-06,
        "meta_mean_motion_ddot": 0,
        "tle_line1": "1 31388U 99025BSU 25337.25547604  .00000468  00000+0  30121-3 0  9998",
        "tle_line2": "2 31388  98.8042 325.4619 0046166 228.0098 147.5361 14.07419415963087"
      },
      "geometry": {
        "type": "Point",
        "coordinates": [
          71.77325569051155,
          -80.86631444277747
        ]
      }
    },
    {
      "type": "Feature",
      "properties": {
        "norad_id": 31389,
        "name": "FENGYUN 1C DEB",
        "group": "fengyun-1c-debris",
        "lat": -9.098332888697398,
        "lon": 144.22852151490383,
        "alt_km": 711.9447031304462,
        "timestamp": "2025-12-04T03:47:54.825301+00:00",
        "meta_object_name": "FENGYUN 1C DEB",
        "meta_object_id": "1999-025BSV",
        "meta_epoch": "2025-12-03T09:53:27.656160",
        "meta_mean_motion": 14.60249637,
        "meta_eccentricity": 0.0030516,
        "meta_inclination": 99.0426,
        "meta_ra_of_asc_node": 141.9537,
        "meta_arg_of_pericenter": 216.4518,
        "meta_mean_anomaly": 173.9957,
        "meta_ephemeris_type": 0,
        "meta_classification_type": "U",
        "meta_norad_cat_id": 31389,
        "meta_element_set_no": 999,
        "meta_rev_at_epoch": 96361,
        "meta_bstar": 0.0068184,
        "meta_mean_motion_dot": 0.00033216,
        "meta_mean_motion_ddot": 0,
        "tle_line1": "1 31389U 99025BSV 25337.41212565  .00033216  00000+0  68184-2 0  9998",
        "tle_line2": "2 31389  99.0426 141.9537 0030516 216.4518 173.9957 14.60249637963616"
      },
      "geometry": {
        "type": "Point",
        "coordinates": [
          144.22852151490383,
          -9.098332888697398
        ]
      }
    },
    {
      "type": "Feature",
      "properties": {
        "norad_id": 31410,
        "name": "FENGYUN 1C DEB",
        "group": "fengyun-1c-debris",
        "lat": -36.84123218678998,
        "lon": -47.326468707653056,
        "alt_km": 755.7422522825609,
        "timestamp": "2025-12-04T03:47:54.825311+00:00",
        "meta_object_name": "FENGYUN 1C DEB",
        "meta_object_id": "1999-025BSW",
        "meta_epoch": "2025-12-01T10:16:43.576896",
        "meta_mean_motion": 14.44660711,
        "meta_eccentricity": 0.01107684,
        "meta_inclination": 98.8365,
        "meta_ra_of_asc_node": 136.529,
        "meta_arg_of_pericenter": 320.6498,
        "meta_mean_anomaly": 107.8693,
        "meta_ephemeris_type": 0,
        "meta_classification_type": "U",
        "meta_norad_cat_id": 31410,
        "meta_element_set_no": 999,
        "meta_rev_at_epoch": 97588,
        "meta_bstar": 0.0008135917,
        "meta_mean_motion_dot": 2.987e-05,
        "meta_mean_motion_ddot": 0,
        "tle_line1": "1 31410U 99025BSW 25335.42828214  .00002987  00000+0  81359-3 0  9997",
        "tle_line2": "2 31410  98.8365 136.5290 0110768 320.6498 107.8693 14.44660711975886"
      },
      "geometry": {
        "type": "Point",
        "coordinates": [
          -47.326468707653056,
          -36.84123218678998
        ]
      }
    }
  ]
}